{"type": "FeatureCollection", "features": [ {"type": "Feature", "properties": {"norad_id": 38779, "name": "GSAT-10 (GAGAN/PRN 128)", "group": "gnss", "lat": 0.04841125179897505, "lon": -24.089861334647868, "alt_km": 35794.39300455412, "timestamp": "2025-12-10T11:33:53.628109+00:00", "meta": {"OBJECT_NAME": "GSAT-10 (GAGAN/PRN 128)", "OBJECT_ID": "2012-051B", "EPOCH": "2025-12-10T00:35:38.775840", "MEAN_MOTION": 1.00273767, "ECCENTRICITY": 0.0002313, "INCLINATION": 0.0553, "RA_OF_ASC_NODE": 262.8411, "ARG_OF_PERICENTER": 228.584, "MEAN_ANOMALY": 39.4837, "EPHEMERIS_TYPE": 0, "CLASSIFICATION_TYPE": "U", "NORAD_CAT_ID": 38779, "ELEMENT_SET_NO": 999, "REV_AT_EPOCH": 4820, "BSTAR": 0, "MEAN_MOTION_DOT": -1.62e-06, "MEAN_MOTION_DDOT": 0}, "tle": {"line1": "1 38779U 12051B   25344.02475435 -.00000162  00000+0  00000+0 0  9999", "line2": "2 38779   0.0553 262.8411 0002313 228.5840  39.4837  1.00273767 48202"}}, "geometry": {"type": "Point", "coordinates": [-24.089861334647868, 0.04841125179897505]}}, {"type": "Feature", "properties": {"norad_id": 38833, "name": "GPS BIIF-3  (PRN 24)", "group": "gnss", "lat": 53.488219394778085, "lon": -115.34442240033633, "alt_km": 19761.913368581845, "timestamp": "2025-12-10T11:33:53.628121+00:00", "meta": {"OBJECT_NAME": "GPS BIIF-3  (PRN 24)", "OBJECT_ID": "2012-053A", "EPOCH": "2025-12-09T08:40:03.793728", "MEAN_MOTION": 2.00564926, "ECCENTRICITY": 0.01757344, "INCLINATION": 53.5568, "RA_OF_ASC_NODE": 151.3769, "ARG_OF_PERICENTER": 63.947, "MEAN_ANOMALY": 297.8481, "EPHEMERIS_TYPE": 0, "CLASSIFICATION_TYPE": "U", "NORAD_CAT_ID": 38833, "ELEMENT_SET_NO": 999, "REV_AT_EPOCH": 9563, "BSTAR": 0, "MEAN_MOTION_DOT": 6.3e-07, "MEAN_MOTION_DDOT": 0}, "tle": {"line1": "1 38833U 12053A   25343.36115502  .00000063  00000+0  00000+0 0  9993", "line2": "2 38833  53.5568 151.3769 0175734  63.9470 297.8481  2.00564926 95633"}}, "geometry": {"type": "Point", "coordinates": [-115.34442240033633, 53.488219394778085]}}, {"type": "Feature", "properties": {"norad_id": 38857, "name": "GSAT0103 (GALILEO-FM3)", "group": "gnss", "lat": -50.5689236677777, "lon": 50.66476210985787, "alt_km": 23220.894674708063, "timestamp": "2025-12-10T11:33:53.628136+00:00", "meta": {"OBJECT_NAME": "GSAT0103 (GALILEO-FM3)", "OBJECT_ID": "2012-055A", "EPOCH": "2025-12-08T20:02:14.787168", "MEAN_MOTION": 1.70473288, "ECCENTRICITY": 0.000255, "INCLINATION": 55.6903, "RA_OF_ASC_NODE": 106.7738, "ARG_OF_PERICENTER": 268.6106, "MEAN_ANOMALY": 91.3235, "EPHEMERIS_TYPE": 0, "CLASSIFICATION_TYPE": "U", "NORAD_CAT_ID": 38857, "ELEMENT_SET_NO": 999, "REV_AT_EPOCH": 8176, "BSTAR": 0, "MEAN_MOTION_DOT": 1.1e-07, "MEAN_MOTION_DDOT": 0}, "tle": {"line1": "1 38857U 12055A   25342.83489337  .00000011  00000+0  00000+0 0  9995", "line2": "2 38857  55.6903 106.7738 0002550 268.6106  91.3235  1.70473288 81769"}}, "geometry": {"type": "Point", "coordinates": [50.66476210985787, -50.5689236677777]}}, {"type": "Feature", "properties": {"norad_id": 38953, "name": "BEIDOU-2 G6 (C02)", "group": "gnss", "lat": -3.902949241031516, "lon": -23.10608179597694, "alt_km": 35759.15804292237, "timestamp": "2025-12-10T11:33:53.628149+00:00", "meta": {"OBJECT_NAME": "BEIDOU-2 G6 (C02)", "OBJECT_ID": "2012-059A", "EPOCH": "2025-12-09T20:49:14.248128", "MEAN_MOTION": 1.00269717, "ECCENTRICITY": 0.000755, "INCLINATION": 3.9416, "RA_OF_ASC_NODE": 75.5266, "ARG_OF_PERICENTER": 289.1257, "MEAN_ANOMALY": 110.535, "EPHEMERIS_TYPE": 0, "CLASSIFICATION_TYPE": "U", "NORAD_CAT_ID": 38953, "ELEMENT_SET_NO": 999, "REV_AT_EPOCH": 4801, "BSTAR": 0, "MEAN_MOTION_DOT": -1.73e-06, "MEAN_MOTION_DDOT": 0}, "tle": {"line1": "1 38953U 12059A   25343.86752602 -.00000173  00000+0  00000+0 0  9998", "line2": "2 38953   3.9416  75.5266 0007550 289.1257 110.5350  1.00269717 48016"}}, "geometry": {"type": "Point", "coordinates": [-23.10608179597694, -3.902949241031516]}}, {"type": "Feature", "properties": {"norad_id": 38977, "name": "LUCH 5B (SDCM/PRN 125)", "group": "gnss", "lat": -0.8611838046020469, "lon": -123.4897147833014, "alt_km": 35755.603703684035, "timestamp": "2025-12-10T11:33:53.628162+00:00", "meta": {"OBJECT_NAME": "LUCH 5B (SDCM/PRN 125)", "OBJECT_ID": "2012-061A", "EPOCH": "2025-12-08T10:06:12.360096", "MEAN_MOTION": 1.00272234, "ECCENTRICITY": 0.00072728, "INCLINATION": 10.0716, "RA_OF_ASC_NODE": 51.747, "ARG_OF_PERICENTER": 191.5954, "MEAN_ANOMALY": 329.292, "EPHEMERIS_TYPE": 0, "CLASSIFICATION_TYPE": "U", "NORAD_CAT_ID": 38977, "ELEMENT_SET_NO": 999, "REV_AT_EPOCH": 4769, "BSTAR": 0, "MEAN_MOTION_DOT": -1.39e-06, "MEAN_MOTION_DDOT": 0}, "tle": {"line1": "1 38977U 12061A   25342.42097639 -.00000139  00000+0  00000+0 0  9992", "line2": "2 38977  10.0716  51.7470 0007272 191.5954 329.2920  1.00272234 47691"}}, "geometry": {"type": "Point", "coordinates": [-123.4897147833014, -0.8611838046020469]}}, {"type": "Feature", "properties": {"norad_id": 39155, "name": "COSMOS 2485 (747)", "group": "gnss", "lat": 14.778548601086865, "lon": -107.01079766729909, "alt_km": 19102.228804624847, "timestamp": "2025-12-10T11:33:53.628174+00:00", "meta": {"OBJECT_NAME": "COSMOS 2485 (747)", "OBJECT_ID": "2013-019A", "EPOCH": "2025-12-09T07:54:23.495904", "MEAN_MOTION": 2.1310286, "ECCENTRICITY": 0.0024563, "INCLINATION": 65.3117, "RA_OF_ASC_NODE": 79.982, "ARG_OF_PERICENTER": 229.1601, "MEAN_ANOMALY": 130.6433, "EPHEMERIS_TYPE": 0, "CLASSIFICATION_TYPE": "U", "NORAD_CAT_ID": 39155, "ELEMENT_SET_NO": 999, "REV_AT_EPOCH": 9823, "BSTAR": 0, "MEAN_MOTION_DOT": -1.3e-07, "MEAN_MOTION_DDOT": 0}, "tle": {"line1": "1 39155U 13019A   25343.32943861 -.00000013  00000+0  00000+0 0  9993", "line2": "2 39155  65.3117  79.9820 0024563 229.1601 130.6433  2.13102860 98239"}}, "geometry": {"type": "Point", "coordinates": [-107.01079766729909, 14.778548601086865]}}, {"type": "Feature", "properties": {"norad_id": 39166, "name": "GPS BIIF-4  (PRN 27)", "group": "gnss", "lat": -7.867277416075419, "lon": 102.26834453379715, "alt_km": 20465.466593486693, "timestamp": "2025-12-10T11:33:53.628185+00:00", "meta": {"OBJECT_NAME": "GPS BIIF-4  (PRN 27)", "OBJECT_ID": "2013-023A", "EPOCH": "2025-12-09T05:24:11.844576", "MEAN_MOTION": 2.00565099, "ECCENTRICITY": 0.01376828, "INCLINATION": 54.6551, "RA_OF_ASC_NODE": 276.7112, "ARG_OF_PERICENTER": 48.5762, "MEAN_ANOMALY": 312.6137, "EPHEMERIS_TYPE": 0, "CLASSIFICATION_TYPE": "U", "NORAD_CAT_ID": 39166, "ELEMENT_SET_NO": 999, "REV_AT_EPOCH": 9207, "BSTAR": 0, "MEAN_MOTION_DOT": -4.9e-07, "MEAN_MOTION_DDOT": 0}, "tle": {"line1": "1 39166U 13023A   25343.22513709 -.00000049  00000+0  00000+0 0  9992", "line2": "2 39166  54.6551 276.7112 0137682  48.5762 312.6137  2.00565099 92075"}}, "geometry": {"type": "Point", "coordinates": [102.26834453379715, -7.867277416075419]}}, {"type": "Feature", "properties": {"norad_id": 39199, "name": "IRNSS-1A", "group": "gnss", "lat": -30.676481338910012, "lon": -56.59049174848051, "alt_km": 35736.457187038206, "timestamp": "2025-12-10T11:33:53.628196+00:00", "meta": {"OBJECT_NAME": "IRNSS-1A", "OBJECT_ID": "2013-034A", "EPOCH": "2025-12-02T19:49:26.431104", "MEAN_MOTION": 1.00279053, "ECCENTRICITY": 0.00216608, "INCLINATION": 35.2852, "RA_OF_ASC_NODE": 66.6964, "ARG_OF_PERICENTER": 185.4059, "MEAN_ANOMALY": 172.3398, "EPHEMERIS_TYPE": 0, "CLASSIFICATION_TYPE": "U", "NORAD_CAT_ID": 39199, "ELEMENT_SET_NO": 999, "REV_AT_EPOCH": 4539, "BSTAR": 0, "MEAN_MOTION_DOT": 6.5e-07, "MEAN_MOTION_DDOT": 0}, "tle": {"line1": "1 39199U 13034A   25336.82600036  .00000065  00000+0  00000+0 0  9995", "line2": "2 39199  35.2852  66.6964 0021660 185.4059 172.3398  1.00279053 45393"}}, "geometry": {"type": "Point", "coordinates": [-56.59049174848051, -30.676481338910012]}}, {"type": "Feature", "properties": {"norad_id": 39533, "name": "GPS BIIF-5  (PRN 30)", "group": "gnss", "lat": -8.47493000361831, "lon": -16.684500209026567, "alt_km": 20012.008149276695, "timestamp": "2025-12-10T11:33:53.628208+00:00", "meta": {"OBJECT_NAME": "GPS BIIF-5  (PRN 30)", "OBJECT_ID": "2014-008A", "EPOCH": "2025-12-09T17:13:43.084992", "MEAN_MOTION": 2.00574232, "ECCENTRICITY": 0.0079131, "INCLINATION": 53.6308, "RA_OF_ASC_NODE": 157.0479, "ARG_OF_PERICENTER": 226.4542, "MEAN_ANOMALY": 132.8924, "EPHEMERIS_TYPE": 0, "CLASSIFICATION_TYPE": "U", "NORAD_CAT_ID": 39533, "ELEMENT_SET_NO": 999, "REV_AT_EPOCH": 8588, "BSTAR": 0, "MEAN_MOTION_DOT": 6.7e-07, "MEAN_MOTION_DDOT": 0}, "tle": {"line1": "1 39533U 14008A   25343.71785978  .00000067  00000+0  00000+0 0  9996", "line2": "2 39533  53.6308 157.0479 0079131 226.4542 132.8924  2.00574232 85882"}}, "geometry": {"type": "Point", "coordinates": [-16.684500209026567, -8.47493000361831]}}, {"type": "Feature", "properties": {"norad_id": 39617, "name": "ASTRA 5B (EGNOS/PRN 123)", "group": "gnss", "lat": -0.06689783166667564, "lon": -83.57774296925179, "alt_km": 35767.7796109863, "timestamp": "2025-12-10T11:33:53.628224+00:00", "meta": {"OBJECT_NAME": "ASTRA 5B (EGNOS/PRN 123)", "OBJECT_ID": "2014-011B", "EPOCH": "2025-12-09T22:19:38.693280", "MEAN_MOTION": 1.00270793, "ECCENTRICITY": 0.0004493, "INCLINATION": 0.0565, "RA_OF_ASC_NODE": 32.2298, "ARG_OF_PERICENTER": 231.0546, "MEAN_ANOMALY": 174.025, "EPHEMERIS_TYPE": 0, "CLASSIFICATION_TYPE": "U", "NORAD_CAT_ID": 39617, "ELEMENT_SET_NO": 999, "REV_AT_EPOCH": 4277, "BSTAR": 0, "MEAN_MOTION_DOT": 1.4e-06, "MEAN_MOTION_DDOT": 0}, "tle": {"line1": "1 39617U 14011B   25343.93030895  .00000140  00000+0  00000+0 0  9990", "line2": "2 39617   0.0565  32.2298 0004493 231.0546 174.0250  1.00270793 42779"}}, "geometry": {"type": "Point", "coordinates": [-83.57774296925179, -0.06689783166667564]}}]}